ION SCV-004             
1 50993U 22002K   26068.68892644  .00006538  00000+0  23198-3 0  9998
2 50993  97.2961 128.2294 0007216   1.6783 358.4480 15.29369331230088
STARLINK-31913          
1 59667U 24084P   26068.28563546  .00000152  00000+0  15055-4 0  9999
2 59667  43.0063  40.4201 0001926 269.9979  90.0652 15.27582330104352
